NORAD_CAT_ID,OBJECT_NAME,OBJECT_TYPE,EPOCH,MEAN_MOTION,ECCENTRICITY,INCLINATION,RA_OF_ASC_NODE,ARG_OF_PERICENTER,MEAN_ANOMALY,BSTAR,MEAN_MOTION_DOT,MEAN_MOTION_DDOT,TLE_LINE0,TLE_LINE1,TLE_LINE2,SEMIMAJOR_AXIS,PERIOD,APOGEE,PERIGEE,DECAYED
54793.0,STARLINK-5433,PAYLOAD,2023-07-17 16:01:24,15.08836534,8.57e-05,53.2183,35.7757,95.2404,264.8686,0.00010588,1.398e-05,0.0,0 STARLINK-5433,1 54793U 22175AM  23198.66764401  .00001398  00000-0  10588-3 0  9998,2 54793  53.2183  35.7757 0000857  95.2404 264.8686 15.08836534 32277,6917.891,95.438,540.349,539.163,0.0
54793.0,STARLINK-5433,PAYLOAD,2023-07-18 01:33:42,15.08853649,0.0001044,53.2176,33.9918,92.1458,267.9653,0.00011786,1.589e-05,0.0,0 STARLINK-5433,1 54793U 22175AM  23199.06507198  .00001589  00000-0  11786-3 0  9994,2 54793  53.2176  33.9918 0001044  92.1458 267.9653 15.08853649 32333,6917.839,95.437,540.426,538.981,0.0
54793.0,STARLINK-5433,PAYLOAD,2023-07-18 15:52:12,15.08827455,0.0001024,53.2177,31.316,64.9806,295.1293,1.5398e-05,-4.3e-07,0.0,0 STARLINK-5433,1 54793U 22175AM  23199.66125332 -.00000043  00000-0  15398-4 0  9995,2 54793  53.2177  31.3160 0001024  64.9806 295.1293 15.08827455 32426,6917.919,95.438,540.492,539.075,0.0
54793.0,STARLINK-5433,PAYLOAD,2023-07-18 19:02:58,15.08833143,0.0001096,53.218,30.7211,70.117,289.9941,2.5874e-05,1.24e-06,0.0,0 STARLINK-5433,1 54793U 22175AM  23199.79373051  .00000124  00000-0  25874-4 0  9991,2 54793  53.2180  30.7211 0001096  70.1170 289.9941 15.08833143 32446,6917.901,95.438,540.525,539.008,0.0
54793.0,STARLINK-5433,PAYLOAD,2023-07-19 18:53:45,15.08842509,0.0001017,53.218,26.2613,72.2953,287.815,-6.9968e-05,-1.401e-05,0.0,0 STARLINK-5433,1 54793U 22175AM  23200.78732967 -.00001401  00000-0 -69968-4 0  9991,2 54793  53.2180  26.2613 0001017  72.2953 287.8150 15.08842509 32598,6917.873,95.437,540.441,539.034,0.0
54793.0,STARLINK-5433,PAYLOAD,2023-07-20 13:58:23,15.08815329,8.9e-05,53.2183,22.6925,88.1453,271.9641,0.00036172,5.47e-05,0.0,0 STARLINK-5433,1 54793U 22175AM  23201.58221559  .00005470  00000-0  36172-3 0  9998,2 54793  53.2183  22.6925 0000890  88.1453 271.9641 15.08815329 32719,6917.956,95.439,540.436,539.205,0.0
54793.0,STARLINK-5433,PAYLOAD,2023-07-20 18:44:31,15.08842691,0.0001029,53.2188,21.8008,87.5228,272.5882,8.536e-05,1.071e-05,0.0,0 STARLINK-5433,1 54793U 22175AM  23201.78092477  .00001071  00000-0  85360-4 0  9992,2 54793  53.2188  21.8008 0001029  87.5228 272.5882 15.08842691 32744,6917.872,95.437,540.449,539.025,0.0
54793.0,STARLINK-5433,PAYLOAD,2023-07-23 21:27:40,15.08835193,8.34e-05,53.2186,7.824,100.955,259.1536,-6.2628e-05,-1.284e-05,0.0,0 STARLINK-5433,1 54793U 22175AM  23204.89421612 -.00001284  00000-0 -62628-4 0  9994,2 54793  53.2186   7.8240 0000834 100.9550 259.1536 15.08835193 35373,6917.895,95.438,540.337,539.183,0.0
54793.0,STARLINK-5433,PAYLOAD,2023-07-25 13:12:19,15.08817351,7.29e-05,53.2181,0.3909,110.5473,249.5598,0.0003298,4.962e-05,0.0,0 STARLINK-5433,1 54793U 22175AM  23206.55022594  .00004962  00000-0  32980-3 0  9996,2 54793  53.2181   0.3909 0000729 110.5473 249.5598 15.08817351 35627,6917.95,95.439,540.319,539.31,0.0
54793.0,STARLINK-5433,PAYLOAD,2023-07-26 13:03:05,15.08856412,9.39e-05,53.2181,355.9296,92.4783,267.6317,0.0001986,2.876e-05,0.0,0 STARLINK-5433,1 54793U 22175AM  23207.54381255  .00002876  00000-0  19860-3 0  9992,2 54793  53.2181 355.9296 0000939  92.4783 267.6317 15.08856412 35777,6917.83,95.437,540.345,539.046,0.0
54793.0,STARLINK-5433,PAYLOAD,2023-07-26 19:24:37,15.08877389,0.0001433,53.2189,354.7465,74.4758,285.6392,6.6855e-05,7.77e-06,0.0,0 STARLINK-5433,1 54793U 22175AM  23207.80876371  .00000777  00000-0  66855-4 0  9994,2 54793  53.2189 354.7465 0001433  74.4758 285.6392 15.08877389 35816,6917.766,95.435,540.622,538.64,0.0
54793.0,STARLINK-5433,PAYLOAD,2023-07-27 09:43:06,15.08841544,0.0001276,53.2183,352.0642,81.7225,278.3912,-3.4764e-06,-3.43e-06,0.0,0 STARLINK-5433,1 54793U 22175AM  23208.40494200 -.00000343  00000-0 -34764-5 0  9994,2 54793  53.2183 352.0642 0001276  81.7225 278.3912 15.08841544 33744,6917.876,95.437,540.623,538.858,0.0
54793.0,STARLINK-5433,PAYLOAD,2023-07-27 20:50:48,15.08844303,0.0001159,53.2189,349.9818,87.0095,273.103,-0.00010437,-1.949e-05,0.0,0 STARLINK-5433,1 54793U 22175AM  23208.86862099 -.00001949  00000-0 -10437-3 0  9991,2 54793  53.2189 349.9818 0001159  87.0095 273.1030 15.08844303 35971,6917.867,95.437,540.534,538.93,0.0
54793.0,STARLINK-5433,PAYLOAD,2023-07-28 09:33:53,15.08850033,0.0001244,53.2181,347.6033,85.9613,274.1522,-0.00017823,-3.124e-05,0.0,0 STARLINK-5433,1 54793U 22175AM  23209.39853859 -.00003124  00000-0 -17823-3 0  9997,2 54793  53.2181 347.6033 0001244  85.9613 274.1522 15.08850033 36059,6917.85,95.437,540.575,538.854,0.0
54793.0,STARLINK-5433,PAYLOAD,2023-07-28 15:55:25,15.08854929,0.0001179,53.2178,346.4139,75.1723,284.9399,-0.00013944,-2.507e-05,0.0,0 STARLINK-5433,1 54793U 22175AM  23209.66349240 -.00002507  00000-0 -13944-3 0  9995,2 54793  53.2178 346.4139 0001179  75.1723 284.9399 15.08854929 33932,6917.835,95.437,540.515,538.884,0.0
54793.0,STARLINK-5433,PAYLOAD,2023-07-28 20:41:33,15.08912557,0.0001725,53.2172,345.5217,116.5987,243.5182,-0.00097604,-0.00015819,0.0,0 STARLINK-5433,1 54793U 22175AM  23209.86219586 -.00015819  00000-0 -97604-3 0  9991,2 54793  53.2172 345.5217 0001725 116.5987 243.5182 15.08912557 33968,6917.659,95.433,540.717,538.33,0.0
54793.0,STARLINK-5433,PAYLOAD,2023-07-29 09:24:40,15.08838581,0.0001405,53.2161,343.1421,74.488,285.6267,0.00011401,1.527e-05,0.0,0 STARLINK-5433,1 54793U 22175AM  23210.39213293  .00001527  00000-0  11401-3 0  9990,2 54793  53.2161 343.1421 0001405  74.4880 285.6267 15.08838581 34041,6917.885,95.438,540.722,538.778,0.0
54793.0,STARLINK-5433,PAYLOAD,2023-07-29 20:32:21,15.08852605,0.0001199,53.2181,341.0616,64.9665,295.1452,0.00019985,2.895e-05,0.0,0 STARLINK-5433,1 54793U 22175AM  23210.85580153  .00002895  00000-0  19985-3 0  9997,2 54793  53.2181 341.0616 0001199  64.9665 295.1452 15.08852605 34114,6917.842,95.437,540.536,538.877,0.0
54793.0,STARLINK-5433,PAYLOAD,2023-07-30 09:15:28,15.08828133,0.0001389,53.2163,338.6835,72.7074,287.407,1.613e-05,-3.1e-07,0.0,0 STARLINK-5433,1 54793U 22175AM  23211.38574496 -.00000031  00000-0  16130-4 0  9990,2 54793  53.2163 338.6835 0001389  72.7074 287.4070 15.08828133 34198,6917.917,95.438,540.743,538.821,0.0
54793.0,STARLINK-5433,PAYLOAD,2023-07-30 17:12:23,15.08841923,0.0001113,53.2183,337.1968,69.9626,290.1485,6.0174e-05,6.7e-06,0.0,0 STARLINK-5433,1 54793U 22175AM  23211.71693638  .00000670  00000-0  60174-4 0  9992,2 54793  53.2183 337.1968 0001113  69.9626 290.1485 15.08841923 34246,6917.875,95.437,540.509,538.97,0.0
54793.0,STARLINK-5433,PAYLOAD,2023-08-01 07:21:38,15.08833396,8.8e-05,53.2179,330.0622,77.9045,282.2046,0.00013138,1.803e-05,0.0,0 STARLINK-5433,1 54793U 22175AM  23213.30669933  .00001803  00000-0  13138-3 0  9996,2 54793  53.2179 330.0622 0000880  77.9045 282.2046 15.08833396 34480,6917.901,95.438,540.374,539.157,0.0
54793.0,STARLINK-5433,PAYLOAD,2023-08-01 15:18:34,15.08841869,0.000109,53.2176,328.5728,88.1988,271.9129,0.00010219,1.339e-05,0.0,0 STARLINK-5433,1 54793U 22175AM  23213.63789639  .00001339  00000-0  10219-3 0  9999,2 54793  53.2176 328.5728 0001090  88.1988 271.9129 15.08841869 34537,6917.875,95.437,540.494,538.986,0.0
54793.0,STARLINK-5433,PAYLOAD,2023-08-03 13:24:45,15.08843085,0.0001035,53.2172,319.9492,91.1283,268.9828,9.059e-05,1.154e-05,0.0,0 STARLINK-5433,1 54793U 22175AM  23215.55885745  .00001154  00000-0  90590-4 0  9993,2 54793  53.2172 319.9492 0001035  91.1283 268.9828 15.08843085 34822,6917.871,95.437,540.452,539.02,0.0
54793.0,STARLINK-5433,PAYLOAD,2023-08-03 18:10:54,15.08851427,0.0001065,53.2177,319.0556,83.1951,276.9162,0.00017897,2.563e-05,0.0,0 STARLINK-5433,1 54793U 22175AM  23215.75757245  .00002563  00000-0  17897-3 0  9991,2 54793  53.2177 319.0556 0001065  83.1951 276.9162 15.08851427 34857,6917.845,95.437,540.447,538.974,0.0
54793.0,STARLINK-5433,PAYLOAD,2023-08-04 10:04:46,15.08835849,0.0001026,53.2172,316.0832,81.9682,278.1427,-3.0525e-05,-7.73e-06,0.0,0 STARLINK-5433,1 54793U 22175AM  23216.41998216 -.00000773  00000-0 -30525-4 0  9997,2 54793  53.2172 316.0832 0001026  81.9682 278.1427 15.08835849 34959,6917.893,95.438,540.468,539.048,0.0
54793.0,STARLINK-5433,PAYLOAD,2023-08-04 18:01:41,15.08847794,0.0001035,53.2182,314.5953,85.2829,274.8281,6.4917e-05,7.46e-06,0.0,0 STARLINK-5433,1 54793U 22175AM  23216.75117491  .00000746  00000-0  64917-4 0  9992,2 54793  53.2182 314.5953 0001035  85.2829 274.8281 15.08847794 35007,6917.857,95.437,540.438,539.006,0.0
54793.0,STARLINK-5433,PAYLOAD,2023-08-05 09:55:33,15.08843025,0.0001255,53.2162,311.6288,47.7073,312.4025,-1.6596e-05,-5.52e-06,0.0,0 STARLINK-5433,1 54793U 22175AM  23217.41358100 -.00000552  00000-0 -16596-4 0  9997,2 54793  53.2162 311.6288 0001255  47.7073 312.4025 15.08843025 35101,6917.871,95.437,540.604,538.868,0.0
54793.0,STARLINK-5433,PAYLOAD,2023-08-05 16:17:05,15.08859196,0.0001141,53.2168,310.4354,71.3737,288.7379,0.00027878,4.154e-05,0.0,0 STARLINK-5433,1 54793U 22175AM  23217.67853185  .00004154  00000-0  27878-3 0  9992,2 54793  53.2168 310.4354 0001141  71.3737 288.7379 15.08859196 35149,6917.822,95.436,540.476,538.897,0.0
54793.0,STARLINK-5433,PAYLOAD,2023-08-06 09:46:20,15.08835499,0.0001176,53.2179,307.1655,103.9287,256.1836,-3.972e-06,-3.51e-06,0.0,0 STARLINK-5433,1 54793U 22175AM  23218.40718399 -.00000351  00000-0 -39720-5 0  9999,2 54793  53.2179 307.1655 0001176 103.9287 256.1836 15.08835499 35257,6917.894,95.438,540.573,538.946,0.0
54793.0,STARLINK-5433,PAYLOAD,2023-08-06 16:07:53,15.08842398,0.0001148,53.2179,305.9754,102.3332,257.7788,0.00011058,1.473e-05,0.0,0 STARLINK-5433,1 54793U 22175AM  23218.67214138  .00001473  00000-0  11058-3 0  9996,2 54793  53.2179 305.9754 0001148 102.3332 257.7788 15.08842398 35299,6917.873,95.437,540.532,538.944,0.0
